STARLINK-31886          
1 59662U 24084J   26003.18725547  .00000232  00000+0  17953-4 0  9991
2 59662  43.0057  51.8735 0001251 264.2272  95.8437 15.27578438 94359
STARLINK-31909          
1 59663U 24084K   26003.40639182  .00000668  00000+0  33787-4 0  9992
2 59663  43.0038  50.1163 0001639 265.0756  94.9909 15.27590663 94394
STARLINK-31910          
1 59664U 24084L   26003.48590825  .00002995  00000+0  11829-3 0  9998
2 59664  43.0008  49.8110 0000995 281.6789  78.3951 15.27585243 94406
STARLINK-31902          
1 59666U 24084N   26003.39112076  .00001083  00000+0  48894-4 0  9998
2 59666  43.0032  50.8186 0001120 228.6478 131.4277 15.27573902 94385
STARLINK-31913          
1 59667U 24084P   26003.42228419  .00000336  00000+0  21743-4 0  9996
2 59667  43.0061  46.7372 0001912 285.7288  74.3352 15.27592947 94436
STARLINK-31866          
1 59668U 24084Q   26003.40221531  .00003417  00000+0  13361-3 0  9992
2 59668  43.0015  43.1083 0000887 233.1595 126.9175 15.27581277 94479
STARLINK-31917          
1 59669U 24084R   26003.17697440  .00005558  00000+0  21159-3 0  9995
2 59669  43.0031  51.7893 0000518 249.9046 110.1750 15.27539789 94351
STARLINK-31860          
1 59670U 24084S   26003.50181603  .00001130  00000+0  50581-4 0  9997
2 59670  43.0014  46.4685 0001001 287.4973  72.5770 15.27578349 94424
STARLINK-31854          
1 59671U 24084T   26003.45792392 -.00001141  00000+0 -31958-4 0  9996
2 59671  42.9982  17.1658 0001135 256.7454 103.3271 15.27583770 94752
STARLINK-31842          
1 59672U 24084U   26003.18259442  .00004981  00000+0  19043-3 0  9994
2 59672  43.0007  48.3684 0001364 224.8644 135.2097 15.27572184 94396
STARLINK-31871          
1 59673U 24084V   26003.43080782 -.00000477  00000+0 -78070-5 0  9997
2 59673  43.0022  50.2528 0000691 250.9777 109.1000 15.27572461 94394
STARLINK-31875          
1 59674U 24084W   26003.49411019  .00001852  00000+0  76807-4 0  9996
2 59674  43.0020  46.4087 0000719 226.5142 133.5650 15.27575423 94445
STARLINK-31877          
1 59675U 24084X   26003.18468959  .00002033  00000+0  83424-4 0  9993
2 59675  43.0068  51.8492 0001596 279.8389  80.2283 15.27565792 94354
STARLINK-31884          
1 59676U 24084Y   26003.50004958  .00004233  00000+0  16331-3 0  9991
2 59676  43.0038  49.9380 0001370 271.0623  89.0072 15.27567985 94406
STARLINK-32108          
1 59682U 24086A   26003.26141281  .00002516  00000+0  10091-3 0  9993
2 59682  43.0017  73.0070 0001276 282.1914  77.8795 15.27578980 94050
STARLINK-32080          
1 59683U 24086B   26003.47941300 -.00001578  00000+0 -47810-4 0  9996
2 59683  43.0011  72.0724 0001284 290.6781  69.3933 15.27590406 94108
STARLINK-32091          
1 59684U 24086C   26003.20376895  .00006435  00000+0  24331-3 0  9996
2 59684  43.0016  62.2292 0001226 262.0153  98.0559 15.27558615 94195
