[{"OBJECT_NAME":"STARLINK-31886","OBJECT_ID":"2024-084J","EPOCH":"2026-01-03T04:29:38.872608","MEAN_MOTION":15.27578438,"ECCENTRICITY":0.0001251,"INCLINATION":43.0057,"RA_OF_ASC_NODE":51.8735,"ARG_OF_PERICENTER":264.2272,"MEAN_ANOMALY":95.8437,"EPHEMERIS_TYPE":0,"CLASSIFICATION_TYPE":"U","NORAD_CAT_ID":59662,"ELEMENT_SET_NO":999,"REV_AT_EPOCH":9435,"BSTAR":1.7952848e-5,"MEAN_MOTION_DOT":2.32e-6,"MEAN_MOTION_DDOT":0},{"OBJECT_NAME":"STARLINK-31909","OBJECT_ID":"2024-084K","EPOCH":"2026-01-03T09:45:12.253248","MEAN_MOTION":15.27590663,"ECCENTRICITY":0.0001639,"INCLINATION":43.0038,"RA_OF_ASC_NODE":50.1163,"ARG_OF_PERICENTER":265.0756,"MEAN_ANOMALY":94.9909,"EPHEMERIS_TYPE":0,"CLASSIFICATION_TYPE":"U","NORAD_CAT_ID":59663,"ELEMENT_SET_NO":999,"REV_AT_EPOCH":9439,"BSTAR":3.3787e-5,"MEAN_MOTION_DOT":6.68e-6,"MEAN_MOTION_DDOT":0},{"OBJECT_NAME":"STARLINK-31910","OBJECT_ID":"2024-084L","EPOCH":"2026-01-03T11:39:42.472800","MEAN_MOTION":15.27585243,"ECCENTRICITY":9.95e-5,"INCLINATION":43.0008,"RA_OF_ASC_NODE":49.811,"ARG_OF_PERICENTER":281.6789,"MEAN_ANOMALY":78.3951,"EPHEMERIS_TYPE":0,"CLASSIFICATION_TYPE":"U","NORAD_CAT_ID":59664,"ELEMENT_SET_NO":999,"REV_AT_EPOCH":9440,"BSTAR":0.00011829,"MEAN_MOTION_DOT":2.995e-5,"MEAN_MOTION_DDOT":0},{"OBJECT_NAME":"STARLINK-31902","OBJECT_ID":"2024-084N","EPOCH":"2026-01-03T09:23:12.833664","MEAN_MOTION":15.27573902,"ECCENTRICITY":0.000112,"INCLINATION":43.0032,"RA_OF_ASC_NODE":50.8186,"ARG_OF_PERICENTER":228.6478,"MEAN_ANOMALY":131.4277,"EPHEMERIS_TYPE":0,"CLASSIFICATION_TYPE":"U","NORAD_CAT_ID":59666,"ELEMENT_SET_NO":999,"REV_AT_EPOCH":9438,"BSTAR":4.8894e-5,"MEAN_MOTION_DOT":1.083e-5,"MEAN_MOTION_DDOT":0},{"OBJECT_NAME":"STARLINK-31913","OBJECT_ID":"2024-084P","EPOCH":"2026-01-03T10:08:05.354016","MEAN_MOTION":15.27592947,"ECCENTRICITY":0.0001912,"INCLINATION":43.0061,"RA_OF_ASC_NODE":46.7372,"ARG_OF_PERICENTER":285.7288,"MEAN_ANOMALY":74.3352,"EPHEMERIS_TYPE":0,"CLASSIFICATION_TYPE":"U","NORAD_CAT_ID":59667,"ELEMENT_SET_NO":999,"REV_AT_EPOCH":9443,"BSTAR":2.1743e-5,"MEAN_MOTION_DOT":3.36e-6,"MEAN_MOTION_DDOT":0},{"OBJECT_NAME":"STARLINK-31866","OBJECT_ID":"2024-084Q","EPOCH":"2026-01-03T09:39:11.402784","MEAN_MOTION":15.27581277,"ECCENTRICITY":8.87e-5,"INCLINATION":43.0015,"RA_OF_ASC_NODE":43.1083,"ARG_OF_PERICENTER":233.1595,"MEAN_ANOMALY":126.9175,"EPHEMERIS_TYPE":0,"CLASSIFICATION_TYPE":"U","NORAD_CAT_ID":59668,"ELEMENT_SET_NO":999,"REV_AT_EPOCH":9447,"BSTAR":0.00013361,"MEAN_MOTION_DOT":3.417e-5,"MEAN_MOTION_DDOT":0},{"OBJECT_NAME":"STARLINK-31917","OBJECT_ID":"2024-084R","EPOCH":"2026-01-03T04:14:50.588160","MEAN_MOTION":15.27539789,"ECCENTRICITY":5.184e-5,"INCLINATION":43.0031,"RA_OF_ASC_NODE":51.7893,"ARG_OF_PERICENTER":249.9046,"MEAN_ANOMALY":110.175,"EPHEMERIS_TYPE":0,"CLASSIFICATION_TYPE":"U","NORAD_CAT_ID":59669,"ELEMENT_SET_NO":999,"REV_AT_EPOCH":9435,"BSTAR":0.00021159425,"MEAN_MOTION_DOT":5.558e-5,"MEAN_MOTION_DDOT":0},{"OBJECT_NAME":"STARLINK-31860","OBJECT_ID":"2024-084S","EPOCH":"2026-01-03T12:02:36.904992","MEAN_MOTION":15.27578349,"ECCENTRICITY":0.0001001,"INCLINATION":43.0014,"RA_OF_ASC_NODE":46.4685,"ARG_OF_PERICENTER":287.4973,"MEAN_ANOMALY":72.577,"EPHEMERIS_TYPE":0,"CLASSIFICATION_TYPE":"U","NORAD_CAT_ID":59670,"ELEMENT_SET_NO":999,"REV_AT_EPOCH":9442,"BSTAR":5.0581e-5,"MEAN_MOTION_DOT":1.13e-5,"MEAN_MOTION_DDOT":0},{"OBJECT_NAME":"STARLINK-31854","OBJECT_ID":"2024-084T","EPOCH":"2026-01-03T10:59:24.626688","MEAN_MOTION":15.2758377,"ECCENTRICITY":0.0001135,"INCLINATION":42.9982,"RA_OF_ASC_NODE":17.1658,"ARG_OF_PERICENTER":256.7454,"MEAN_ANOMALY":103.3271,"EPHEMERIS_TYPE":0,"CLASSIFICATION_TYPE":"U","NORAD_CAT_ID":59671,"ELEMENT_SET_NO":999,"REV_AT_EPOCH":9475,"BSTAR":-3.1958e-5,"MEAN_MOTION_DOT":-1.141e-5,"MEAN_MOTION_DDOT":0},{"OBJECT_NAME":"STARLINK-31842","OBJECT_ID":"2024-084U","EPOCH":"2026-01-03T04:22:56.157888","MEAN_MOTION":15.27572184,"ECCENTRICITY":0.00013643,"INCLINATION":43.0007,"RA_OF_ASC_NODE":48.3684,"ARG_OF_PERICENTER":224.8644,"MEAN_ANOMALY":135.2097,"EPHEMERIS_TYPE":0,"CLASSIFICATION_TYPE":"U","NORAD_CAT_ID":59672,"ELEMENT_SET_NO":999,"REV_AT_EPOCH":9439,"BSTAR":0.00019043493,"MEAN_MOTION_DOT":4.981e-5,"MEAN_MOTION_DDOT":0},{"OBJECT_NAME":"STARLINK-31871","OBJECT_ID":"2024-084V","EPOCH":"2026-01-03T10:20:21.795648","MEAN_MOTION":15.27572461,"ECCENTRICITY":6.91e-5,"INCLINATION":43.0022,"RA_OF_ASC_NODE":50.2528,"ARG_OF_PERICENTER":250.9777,"MEAN_ANOMALY":109.1,"EPHEMERIS_TYPE":0,"CLASSIFICATION_TYPE":"U","NORAD_CAT_ID":59673,"ELEMENT_SET_NO":999,"REV_AT_EPOCH":9439,"BSTAR":-7.807e-6,"MEAN_MOTION_DOT":-4.77e-6,"MEAN_MOTION_DDOT":0},{"OBJECT_NAME":"STARLINK-31875","OBJECT_ID":"2024-084W","EPOCH":"2026-01-03T11:51:31.120416","MEAN_MOTION":15.27575423,"ECCENTRICITY":7.19e-5,"INCLINATION":43.002,"RA_OF_ASC_NODE":46.4087,"ARG_OF_PERICENTER":226.5142,"MEAN_ANOMALY":133.565,"EPHEMERIS_TYPE":0,"CLASSIFICATION_TYPE":"U","NORAD_CAT_ID":59674,"ELEMENT_SET_NO":999,"REV_AT_EPOCH":9444,"BSTAR":7.6807e-5,"MEAN_MOTION_DOT":1.852e-5,"MEAN_MOTION_DDOT":0},{"OBJECT_NAME":"STARLINK-31877","OBJECT_ID":"2024-084X","EPOCH":"2026-01-03T04:25:57.180576","MEAN_MOTION":15.27565792,"ECCENTRICITY":0.00015967,"INCLINATION":43.0068,"RA_OF_ASC_NODE":51.8492,"ARG_OF_PERICENTER":279.8389,"MEAN_ANOMALY":80.2283,"EPHEMERIS_TYPE":0,"CLASSIFICATION_TYPE":"U","NORAD_CAT_ID":59675,"ELEMENT_SET_NO":999,"REV_AT_EPOCH":9435,"BSTAR":8.3423992e-5,"MEAN_MOTION_DOT":2.033e-5,"MEAN_MOTION_DDOT":0},{"OBJECT_NAME":"STARLINK-31884","OBJECT_ID":"2024-084Y","EPOCH":"2026-01-03T12:00:04.283712","MEAN_MOTION":15.27567985,"ECCENTRICITY":0.000137,"INCLINATION":43.0038,"RA_OF_ASC_NODE":49.938,"ARG_OF_PERICENTER":271.0623,"MEAN_ANOMALY":89.0072,"EPHEMERIS_TYPE":0,"CLASSIFICATION_TYPE":"U","NORAD_CAT_ID":59676,"ELEMENT_SET_NO":999,"REV_AT_EPOCH":9440,"BSTAR":0.00016331,"MEAN_MOTION_DOT":4.233e-5,"MEAN_MOTION_DDOT":0},{"OBJECT_NAME":"STARLINK-32108","OBJECT_ID":"2024-086A","EPOCH":"2026-01-03T06:16:26.066784","MEAN_MOTION":15.2757898,"ECCENTRICITY":0.0001276,"INCLINATION":43.0017,"RA_OF_ASC_NODE":73.007,"ARG_OF_PERICENTER":282.1914,"MEAN_ANOMALY":77.8795,"EPHEMERIS_TYPE":0,"CLASSIFICATION_TYPE":"U","NORAD_CAT_ID":59682,"ELEMENT_SET_NO":999,"REV_AT_EPOCH":9405,"BSTAR":0.00010091,"MEAN_MOTION_DOT":2.516e-5,"MEAN_MOTION_DDOT":0},{"OBJECT_NAME":"STARLINK-32080","OBJECT_ID":"2024-086B","EPOCH":"2026-01-03T11:30:21.283200","MEAN_MOTION":15.27590406,"ECCENTRICITY":0.0001284,"INCLINATION":43.0011,"RA_OF_ASC_NODE":72.0724,"ARG_OF_PERICENTER":290.6781,"MEAN_ANOMALY":69.3933,"EPHEMERIS_TYPE":0,"CLASSIFICATION_TYPE":"U","NORAD_CAT_ID":59683,"ELEMENT_SET_NO":999,"REV_AT_EPOCH":9410,"BSTAR":-4.781e-5,"MEAN_MOTION_DOT":-1.578e-5,"MEAN_MOTION_DDOT":0},{"OBJECT_NAME":"STARLINK-32091","OBJECT_ID":"2024-086C","EPOCH":"2026-01-03T04:53:25.637280","MEAN_MOTION":15.27558615,"ECCENTRICITY":0.0001226,"INCLINATION":43.0016,"RA_OF_ASC_NODE":62.2292,"ARG_OF_PERICENTER":262.0153,"MEAN_ANOMALY":98.0559,"EPHEMERIS_TYPE":0,"CLASSIFICATION_TYPE":"U","NORAD_CAT_ID":59684,"ELEMENT_SET_NO":999,"REV_AT_EPOCH":9419,"BSTAR":0.00024331,"MEAN_MOTION_DOT":6.435e-5,"MEAN_MOTION_DDOT":0}]
